{
  "type": "FeatureCollection",
  "features": [
    {
      "type": "Feature",
      "properties": {
        "norad_id": 54741,
        "name": "GALAXY 35 (G-35)",
        "group": "intelsat",
        "lat": -0.0016507394052775396,
        "lon": -142.4939231860564,
        "alt_km": 35780.844424976654,
        "timestamp": "2025-12-21T14:40:47.578801+00:00",
        "meta_object_name": "GALAXY 35 (G-35)",
        "meta_object_id": "2022-170A",
        "meta_epoch": "2025-12-21T06:35:30.234336",
        "meta_mean_motion": 1.00272036,
        "meta_eccentricity": 0.00021612,
        "meta_inclination": 0.0146,
        "meta_ra_of_asc_node": 67.2142,
        "meta_arg_of_pericenter": 205.8488,
        "meta_mean_anomaly": 182.8171,
        "meta_ephemeris_type": 0,
        "meta_classification_type": "U",
        "meta_norad_cat_id": 54741,
        "meta_element_set_no": 999,
        "meta_rev_at_epoch": 1111,
        "meta_bstar": 0,
        "meta_mean_motion_dot": -1.4e-06,
        "meta_mean_motion_ddot": 0,
        "tle_line1": "1 54741U 22170A   25355.27465549 -.00000140  00000+0  00000+0 0  9999",
        "tle_line2": "2 54741   0.0146  67.2142 0002161 205.8488 182.8171  1.00272036 11114"
      },
      "geometry": {
        "type": "Point",
        "coordinates": [
          -142.4939231860564,
          -0.0016507394052775396
        ]
      }
    },
    {
      "type": "Feature",
      "properties": {
        "norad_id": 54742,
        "name": "GALAXY 36 (G-36)",
        "group": "intelsat",
        "lat": -0.015816493694912358,
        "lon": -138.39308591270546,
        "alt_km": 35787.94701906398,
        "timestamp": "2025-12-21T14:40:47.578813+00:00",
        "meta_object_name": "GALAXY 36 (G-36)",
        "meta_object_id": "2022-170B",
        "meta_epoch": "2025-12-21T04:12:53.274240",
        "meta_mean_motion": 1.0026921,
        "meta_eccentricity": 4.222e-05,
        "meta_inclination": 0.0147,
        "meta_ra_of_asc_node": 28.9908,
        "meta_arg_of_pericenter": 321.7083,
        "meta_mean_anomaly": 73.5178,
        "meta_ephemeris_type": 0,
        "meta_classification_type": "U",
        "meta_norad_cat_id": 54742,
        "meta_element_set_no": 999,
        "meta_rev_at_epoch": 1098,
        "meta_bstar": 0,
        "meta_mean_motion_dot": 0,
        "meta_mean_motion_ddot": 0,
        "tle_line1": "1 54742U 22170B   25355.17561660  .00000000  00000+0  00000+0 0  9994",
        "tle_line2": "2 54742   0.0147  28.9908 0000422 321.7083  73.5178  1.00269210 10984"
      },
      "geometry": {
        "type": "Point",
        "coordinates": [
          -138.39308591270546,
          -0.015816493694912358
        ]
      }
    },
    {
      "type": "Feature",
      "properties": {
        "norad_id": 57493,
        "name": "GALAXY 37 (G-37)",
        "group": "intelsat",
        "lat": 0.0013654969746561372,
        "lon": -176.41048391032882,
        "alt_km": 35786.3113422851,
        "timestamp": "2025-12-21T14:40:47.578824+00:00",
        "meta_object_name": "GALAXY 37 (G-37)",
        "meta_object_id": "2023-112A",
        "meta_epoch": "2025-12-21T05:23:39.524064",
        "meta_mean_motion": 1.00271048,
        "meta_eccentricity": 0.00019308,
        "meta_inclination": 0.0129,
        "meta_ra_of_asc_node": 8.4193,
        "meta_arg_of_pericenter": 265.5563,
        "meta_mean_anomaly": 129.9804,
        "meta_ephemeris_type": 0,
        "meta_classification_type": "U",
        "meta_norad_cat_id": 57493,
        "meta_element_set_no": 999,
        "meta_rev_at_epoch": 875,
        "meta_bstar": 0,
        "meta_mean_motion_dot": 7.1e-07,
        "meta_mean_motion_ddot": 0,
        "tle_line1": "1 57493U 23112A   25355.22476301  .00000071  00000+0  00000+0 0  9998",
        "tle_line2": "2 57493   0.0129   8.4193 0001930 265.5563 129.9804  1.00271048  8758"
      },
      "geometry": {
        "type": "Point",
        "coordinates": [
          -176.41048391032882,
          0.0013654969746561372
        ]
      }
    }
  ]
}